STARLINK-4480           
1 53416U 22097AE  24144.36347736  .00000049  00000+0  21171-4 0  9991
2 53416  53.2160 175.9440 0001249  96.6021 263.5113 15.08840628 99694
STARLINK-4484           
1 53417U 22097AF  24144.37452257 -.00000259  00000+0  18282-5 0  9992
2 53417  53.2164 175.9432 0001354 104.3957 255.7186 15.08843075 99694
STARLINK-4481           
1 53418U 22097AG  24144.46738205 -.00002862  00000+0 -16175-3 0  9993
2 53418  53.2167 165.0918 0001614  91.0816 269.0362 15.08850045 99882
STARLINK-4476           
1 53419U 22097AH  24144.37084133 -.00002230  00000+0 -12210-3 0  9993
2 53419  53.2145 175.9570 0001270  87.4040 272.7097 15.08832922 99698
STARLINK-4552           
1 53420U 22097AJ  24144.35980023  .00002835  00000+0  19611-3 0  9997
2 53420  53.2150 176.0119 0001540  74.9920 285.1242 15.08844130 99699
STARLINK-4545           
1 53421U 22097AK  24144.36716111  .00001479  00000+0  11100-3 0  9992
2 53421  53.2151 175.9780 0001529 100.9649 259.1515 15.08838800 99699
STARLINK-4546           
1 53422U 22097AL  24144.35244256  .00002645  00000+0  18423-3 0  9999
2 53422  53.2149 176.0454 0001653  86.6922 273.4259 15.08841910 99712
STARLINK-4539           
1 53423U 22097AM  24144.36443765 -.00000226  00000+0  38567-5 0  9994
2 53423  53.2150 175.9981 0001074  84.4663 275.6452 15.08843781 99697
STARLINK-4532           
1 53424U 22097AN  24144.41132827  .00000984  00000+0  79919-4 0  9990
2 53424  53.2167 175.7800 0001436  79.4385 280.6769 15.08835284 99721
STARLINK-4531           
1 53425U 22097AP  24144.35612422  .00001672  00000+0  12311-3 0  9995
2 53425  53.2158 176.0292 0001697  62.8578 297.2587 15.08836029 99685
STARLINK-4558           
1 53426U 22097AQ  24144.45642230  .00000984  00000+0  79903-4 0  9993
2 53426  53.2156 165.7326 0001444  81.3839 278.7317 15.08838944 99866
STARLINK-4541           
1 53427U 22097AR  24144.41500151  .00006600  00000+0  43242-3 0  9992
2 53427  53.2147 175.7642 0001476  81.3190 278.7969 15.08834224 99729
STARLINK-4540           
1 53428U 22097AS  24144.31656818  .00000724  00000+0  63583-4 0  9996
2 53428  53.2170 166.2852 0001476  86.4231 273.6930 15.08838912 99849
STARLINK-4543           
1 53429U 22097AT  24144.38649855  .00000078  00000+0  22983-4 0  9998
2 53429  53.2152 166.0069 0001415  82.5787 277.5366 15.08835000 99856
STARLINK-4538           
1 53430U 22097AU  24144.37913706  .00000304  00000+0  37231-4 0  9992
2 53430  53.2170 165.9619 0001448  87.5280 272.5878 15.08829509 99834
STARLINK-4548           
1 53431U 22097AV  24144.47107401  .00001907  00000+0  13785-3 0  9998
2 53431  53.2152 165.1256 0001329  88.2315 271.8829 15.08842516 99874
STARLINK-4557           
1 53432U 22097AW  24144.35333233 -.00000548  00000+0 -16342-4 0  9995
2 53432  53.2156 165.8003 0002165 120.7199 239.4007 15.08840341 99857
STARLINK-4549           
1 53433U 22097AX  24144.44168823  .00000647  00000+0  58738-4 0  9990
2 53433  53.2167 165.6422 0001500  92.5203 267.5961 15.08836103 99848
STARLINK-4498           
1 53434U 22097AY  24144.28340761  .00000648  00000+0  58767-4 0  9999
2 53434  53.2162 166.0754 0001260 103.3975 256.7157 15.08841086 99851
STARLINK-4542           
1 53435U 22097AZ  24144.29077970  .00001065  00000+0  85032-4 0  9999
2 53435  53.2166 166.1190 0001503  94.8473 265.2691 15.08837877 99826
STARLINK-4527           
1 53436U 22097BA  24144.34596276  .00001054  00000+0  84347-4 0  9997
2 53436  53.2162 165.7613 0001616  92.5948 267.5229 15.08834966 99856
STARLINK-4526           
1 53438U 22097BC  24144.34227493  .00000770  00000+0  66472-4 0  9994
2 53438  53.2149 165.7296 0001517 113.5376 246.5775 15.08840048 99861
STARLINK-4519           
1 53439U 22097BD  24144.35429426  .00000055  00000+0  21526-4 0  9993
2 53439  53.2160 165.8021 0001254  97.9604 262.1531 15.08834966 99865
STARLINK-4415           
1 53465U 22099A   24144.33490965  .00001580  00000+0  12753-3 0  9993
2 53465  97.6547 265.5394 0002012  92.5176 267.6278 15.01262933 97660
STARLINK-4398           
1 53466U 22099B   24144.33514912  .00006923  00000+0  54286-3 0  9996
2 53466  97.6545 265.5332 0001983 102.1328 258.0118 15.01271200 97657
STARLINK-4394           
1 53467U 22099C   24144.33118419  .00005072  00000+0  39893-3 0  9990
2 53467  97.6557 265.5885 0001468  87.0213 273.1179 15.01283177 97657
STARLINK-4400           
1 53468U 22099D   24144.33145315  .00000634  00000+0  53973-4 0  9991
2 53468  97.6543 265.5302 0002075  96.7658 263.3802 15.01258801 97652
STARLINK-4399           
1 53469U 22099E   24144.32748966 -.00007216  00000+0 -55770-3 0  9993
2 53469  97.6551 265.5311 0001549  99.5885 260.5514 15.01265194 97652
STARLINK-4393           
1 53470U 22099F   24144.32935208  .00000505  00000+0  43946-4 0  9997
2 53470  97.6555 265.5260 0002142 120.9647 239.1788 15.01258660 97651
STARLINK-4316           
1 53471U 22099G   24144.32379867  .00002247  00000+0  17947-3 0  9997
2 53471  97.6549 265.5253 0001281  95.7515 264.3856 15.01264255 97656
STARLINK-4447           
1 53472U 22099H   24144.32564786  .00009435  00000+0  73774-3 0  9990
2 53472  97.6549 265.5294 0001194  92.8611 267.2750 15.01284632 97656
STARLINK-4383           
1 53473U 22099J   24144.32008244  .00003610  00000+0  28538-3 0  9990
2 53473  97.6546 265.5217 0000477 149.1200 211.0053 15.01276171 97654
STARLINK-4445           
1 53474U 22099K   24144.31293087  .00001284  00000+0  10452-3 0  9992
2 53474  97.6525 265.5076 0001473 269.7007  90.4049 15.01261584 97652
STARLINK-4389           
1 53475U 22099L   24144.31824384  .00000696  00000+0  58776-4 0  9991
2 53475  97.6538 265.5201 0000562 210.0487 150.0705 15.01255866 98352
STARLINK-4378           
1 53476U 22099M   24144.32195178  .00000270  00000+0  25644-4 0  9991
2 53476  97.6546 265.5239 0001061 110.3211 249.8127 15.01254416 97652
STARLINK-4412           
1 53477U 22099N   24144.32034225  .00004169  00000+0  32886-3 0  9993
2 53477  97.6537 265.5089 0000861 153.3823 206.7445 15.01270165 98351
STARLINK-4433           
1 53478U 22099P   24144.31453298  .00003393  00000+0  26855-3 0  9995
2 53478  97.6523 265.5263 0001896 256.4952 103.6061 15.01268108 97653
STARLINK-4436           
1 53479U 22099Q   24144.31268367  .00000244  00000+0  23624-4 0  9991
2 53479  97.6528 265.5053 0002052 252.0892 108.0108 15.01258699 97651
STARLINK-4442           
1 53480U 22099R   24144.31639053  .00000120  00000+0  13904-4 0  9990
2 53480  97.6525 265.5166 0000853 255.1229 104.9900 15.01257614 97651
STARLINK-4302           
1 53481U 22099S   24144.31083199  .00000473  00000+0  41453-4 0  9996
2 53481  97.6535 265.4986 0003244 261.5461  98.5395 15.01256264 97654
STARLINK-4360           
1 53482U 22099T   24144.29971571  .00001755  00000+0  14116-3 0  9993
2 53482  97.6558 265.5161 0002960 252.4747 107.6154 15.01265229 97652
STARLINK-4401           
1 53483U 22099U   24144.29785246  .00004512  00000+0  35544-3 0  9998
2 53483  97.6578 265.5096 0004046 241.3704 118.7113 15.01277006 97653
STARLINK-4426           
1 53484U 22099V   24144.30897619  .00000179  00000+0  18509-4 0  9997
2 53484  97.6538 265.4958 0003410 244.9431 115.1439 15.01261612 97654
STARLINK-4430           
1 53485U 22099W   24144.30341946  .00000350  00000+0  31867-4 0  9998
2 53485  97.6547 265.4913 0003971 254.0598 106.0189 15.01259275 97657
STARLINK-4431           
1 53486U 22099X   24144.30711539  .00003827  00000+0  30228-3 0  9999
2 53486  97.6546 265.4948 0004678 250.4644 109.6075 15.01272875 97656
STARLINK-4432           
1 53487U 22099Y   24144.30736633  .00000256  00000+0  24563-4 0  9991
2 53487  97.6547 265.4779 0002483 245.0886 115.0080 15.01269505 97653
STARLINK-4421           
1 53488U 22099Z   24144.30527109  .00001316  00000+0  10702-3 0  9995
2 53488  97.6543 265.4929 0004640 238.0707 122.0066 15.01263238 97657
STARLINK-4392           
1 53489U 22099AA  24144.30551904  .00018556  00000+0  14454-2 0  9997
2 53489  97.6547 265.4763 0003220 254.5771 105.5097 15.01259294 97652
STARLINK-4387           
1 53490U 22099AB  24144.30157015  .00001316  00000+0  10703-3 0  9994
2 53490  97.6552 265.4900 0003794 241.5352 118.5490 15.01259666 97654
STARLINK-4450           
1 53491U 22099AC  24144.29071111  .00002579  00000+0  20532-3 0  9998
2 53491  97.6560 265.4996 0001452 255.9476 104.1587 15.01262841 97651
STARLINK-4451           
1 53492U 22099AD  24144.29601495  .00002451  00000+0  19532-3 0  9990
2 53492  97.6567 265.4980 0002909 243.0563 117.0365 15.01266551 97654
STARLINK-4361           
1 53493U 22099AE  24144.29417187  .00006354  00000+0  49870-3 0  9998
2 53493  97.6560 265.4836 0001918 210.7933 149.3179 15.01268416 97652
STARLINK-4340           
1 53494U 22099AF  24144.29810921  .00002558  00000+0  20361-3 0  9998
2 53494  97.6578 265.4864 0003910 241.2934 118.7897 15.01265237 97652
STARLINK-4429           
1 53495U 22099AG  24144.35526615  .00000689  00000+0  58244-4 0  9995
2 53495  97.6556 265.5556 0000667 253.3804 106.7347 15.01263114 97664
STARLINK-4465           
1 53496U 22099AH  24144.29231294  .00002792  00000+0  22184-3 0  9995
2 53496  97.6568 265.4929 0001818 239.9575 120.1469 15.01269455 97653
STARLINK-4453           
1 53497U 22099AJ  24144.35158333  .00020641  00000+0  16073-2 0  9997
2 53497  97.6554 265.5579 0001721 123.8564 236.2824 15.01250306 97663
STARLINK-4439           
1 53498U 22099AK  24144.35181973 -.00002716  00000+0 -20706-3 0  9998
2 53498  97.6548 265.5697 0000261 289.1500  70.9696 15.01245067 97660
STARLINK-4454           
1 53499U 22099AL  24144.29046954  .00001243  00000+0  10133-3 0  9996
2 53499  97.6561 265.4740 0001545 274.0860  86.0188 15.01260334 97659
STARLINK-4455           
1 53500U 22099AM  24144.35341717  .00002507  00000+0  19969-3 0  9991
2 53500  97.6551 265.5555 0000235 235.5356 124.5846 15.01266608 97663
